GSAT0101 (PRN E11)      
1 37846U 11060A   22243.92133731 -.00000066  00000+0  00000+0 0  9999
2 37846  57.0240  19.2881 0002135  72.6132 287.4148  1.70474909 67502
GSAT0102 (PRN E12)      
1 37847U 11060B   22243.84104005 -.00000066  00000+0  00000+0 0  9993
2 37847  57.0249  19.2899 0001294   0.2257 357.2776  1.70475309 67509
GSAT0103 (PRN E19)      
1 38857U 12055A   22243.96076109  .00000016  00000+0  00000+0 0  9990
2 38857  55.1563 139.6233 0002834 265.7910  94.2501  1.70473709 61390
GSAT0104 (PRN E20)      
1 38858U 12055B   22243.34417456  .00000017  00000+0  00000+0 0  9998
2 38858  55.1561 139.6419 0000420 244.5373 115.5326  1.70474006 61384
GSAT0201 (PRN E18)      
1 40128U 14050A   22243.13025728 -.00000073  00000+0  00000+0 0  9995
2 40128  50.2322 329.3081 1622518 126.7673 249.2634  1.85519018 52605
GSAT0202 (PRN E14)      
1 40129U 14050B   22243.92999616 -.00000073  00000+0  00000+0 0  9999
2 40129  50.2554 328.3388 1619509 127.6081 248.2399  1.85519553 54783
GSAT0203 (PRN E26)      
1 40544U 15017A   22242.52835860 -.00000067  00000+0  00000+0 0  9992
2 40544  56.8190  19.3489 0002751 214.7593 145.2250  1.70476210 45565
GSAT0204 (PRN E22)      
1 40545U 15017B   22243.95441042 -.00000066  00000+0  00000+0 0  9995
2 40545  56.8246  19.3226 0003154 195.0856 164.9098  1.70475591  8634
GSAT0205 (PRN E24)      
1 40889U 15045A   22243.72165308  .00000053  00000+0  00000+0 0  9995
2 40889  55.5779 259.8832 0003762 347.8496  12.1762  1.70473384 43390
GSAT0206 (PRN E30)      
1 40890U 15045B   22243.94242285  .00000053  00000+0  00000+0 0  9991
2 40890  55.5764 259.8729 0002744 317.0917  42.9214  1.70473344 43420
GSAT0209 (PRN E09)      
1 41174U 15079A   22244.11666022  .00000016  00000+0  00000+0 0  9992
2 41174  55.1727 139.3231 0003295 327.7654  32.2881  1.70473944 41166
GSAT0208 (PRN E08)      
1 41175U 15079B   22243.16299450  .00000017  00000+0  00000+0 0  9995
2 41175  55.1706 139.3479 0002190 340.4822  19.5843  1.70473767 41563
GSAT0211 (PRN E02)      
1 41549U 16030A   22243.28195531  .00000053  00000+0  00000+0 0  9996
2 41549  55.7231 259.8320 0004517 303.0030  56.9893  1.70474944 39049
GSAT0210 (PRN E01)      
1 41550U 16030B   22243.57454768  .00000053  00000+0  00000+0 0  9990
2 41550  55.7236 259.8252 0007017 274.2952  85.6597  1.70475004 39048
GSAT0207 (PRN E07)      
1 41859U 16069A   22243.82366319  .00000016  00000+0  00000+0 0  9995
2 41859  54.8333 139.4939 0003298 306.9048  53.1388  1.70472580 36006
GSAT0212 (PRN E03)      
1 41860U 16069B   22243.09047662  .00000017  00000+0  00000+0 0  9994
2 41860  54.8306 139.5117 0002670 340.3354  19.7286  1.70472618 36021
GSAT0213 (PRN E04)      
1 41861U 16069C   22242.28264231  .00000016  00000+0  00000+0 0  9997
2 41861  54.8329 139.5394 0002933 277.9638  82.0763  1.70472813 35878
GSAT0214 (PRN E05)      
1 41862U 16069D   22243.01636929  .00000017  00000+0  00000+0 0  9998
2 41862  54.8311 139.5135 0001958 283.3640  76.6885  1.70472568 36011
GSAT0215 (PRN E21)      
1 43055U 17079A   22243.50635082  .00000054  00000+0  00000+0 0  9990
2 43055  55.6986 259.6571 0004128 269.9119  90.0757  1.70474154 29366
GSAT0216 (PRN E25)      
1 43056U 17079B   22240.86562123  .00000055  00000+0  00000+0 0  9993
2 43056  55.7010 259.7296 0005780 274.0287  85.9516  1.70474361 29332
GSAT0217 (PRN E27)      
1 43057U 17079C   22242.84561265  .00000053  00000+0  00000+0 0  9998
2 43057  55.6976 259.6749 0005246 283.6798  76.2985  1.70474269 29357
GSAT0218 (PRN E31)      
1 43058U 17079D   22241.89249269  .00000054  00000+0  00000+0 0  9991
2 43058  55.6984 259.6986 0006256 271.4997  88.4693  1.70474244 29363
GSAT0221 (PRN E15)      
1 43564U 18060A   22244.13761649 -.00000066  00000+0  00000+0 0  9999
2 43564  57.2014  19.1399 0002302 245.6268 114.3541  1.70475939 25556
GSAT0222 (PRN E33)      
1 43565U 18060B   22243.18431681 -.00000066  00000+0  00000+0 0  9994
2 43565  57.2035  19.1662 0001652 256.0686 103.9163  1.70475958 25588
GSAT0219 (PRN E36)      
1 43566U 18060C   22243.99144630 -.00000066  00000+0  00000+0 0  9999
2 43566  57.2026  19.1463 0001315 250.0835 109.9070  1.70475977 25577
GSAT0220 (PRN E13)      
1 43567U 18060D   22241.86526294 -.00000067  00000+0  00000+0 0  9995
2 43567  57.2038  19.2048 0001631 242.4314 117.5529  1.70475870 25520
GSAT0223                
1 49809U 21116A   22244.36302830 -.00000066  00000+0  00000+0 0  9991
2 49809  57.1965  19.0354 0003313 162.5439  20.4245  1.70475952  4570
GSAT0224                
1 49810U 21116B   22244.46471885 -.00000066  00000+0  00000+0 0  9991
2 49810  57.1971  19.0307 0003006 154.0096 203.8450  1.70475889  4597
